[
    {
        "Altitude(m)": 624792.7827665543,
        "Argument of Periapsis(deg)": 0.0,
        "Eccentricity": 0.0,
        "Inclination(deg)": 60.0,
        "Latitude(deg)": -59.14711999383538,
        "Longitude(deg)": -10.973434034997908,
        "Mean Anomaly(deg)": -98.18180000000002,
        "RAAN(deg)": 195.00000000000003,
        "Satellite Name": "Test1 874",
        "Satellite Number": 874,
        "Semi-Major Axis(m)": 6980739.136638005,
        "Time(s)": 0
    },
    {
        "Altitude(m)": 624842.1741355892,
        "Argument of Periapsis(deg)": 0.00010418945913296404,
        "Eccentricity": 0.0,
        "Inclination(deg)": 60.0,
        "Latitude(deg)": -59.28920164844855,
        "Longitude(deg)": -9.843928004129067,
        "Mean Anomaly(deg)": -97.56169385453816,
        "RAAN(deg)": 194.99957995086024,
        "Satellite Name": "Test1 874",
        "Satellite Number": 874,
        "Semi-Major Axis(m)": 6980739.136638005,
        "Time(s)": 10
    }
]